{
  "type": "FeatureCollection",
  "features": [
    {
      "type": "Feature",
      "properties": {
        "norad_id": 28890,
        "name": "BEIJING 1",
        "group": "dmc",
        "lat": 31.476563059707075,
        "lon": 121.37587768980289,
        "alt_km": 677.3262216831727,
        "timestamp": "2025-12-24T22:42:21.688773+00:00",
        "meta_object_name": "BEIJING 1",
        "meta_object_id": "2005-043A",
        "meta_epoch": "2025-12-24T07:47:30.466752",
        "meta_mean_motion": 14.63375374,
        "meta_eccentricity": 0.00158125,
        "meta_inclination": 98.2665,
        "meta_ra_of_asc_node": 125.8597,
        "meta_arg_of_pericenter": 107.3104,
        "meta_mean_anomaly": 252.9829,
        "meta_ephemeris_type": 0,
        "meta_classification_type": "U",
        "meta_norad_cat_id": 28890,
        "meta_element_set_no": 999,
        "meta_rev_at_epoch": 7507,
        "meta_bstar": 3.9729131e-05,
        "meta_mean_motion_dot": 1.57e-06,
        "meta_mean_motion_ddot": 0,
        "tle_line1": "1 28890U 05043A   25358.32465818  .00000157  00000+0  39729-4 0  9995",
        "tle_line2": "2 28890  98.2665 125.8597 0015812 107.3104 252.9829 14.63375374 75074"
      },
      "geometry": {
        "type": "Point",
        "coordinates": [
          121.37587768980289,
          31.476563059707075
        ]
      }
    },
    {
      "type": "Feature",
      "properties": {
        "norad_id": 33320,
        "name": "HUANJING 1A (HJ-1A)",
        "group": "dmc",
        "lat": -37.85401301249592,
        "lon": 160.7353992932032,
        "alt_km": 634.8877975193345,
        "timestamp": "2025-12-24T22:42:21.688797+00:00",
        "meta_object_name": "HUANJING 1A (HJ-1A)",
        "meta_object_id": "2008-041A",
        "meta_epoch": "2025-12-24T07:09:18.126144",
        "meta_mean_motion": 14.83428691,
        "meta_eccentricity": 0.00193171,
        "meta_inclination": 97.6547,
        "meta_ra_of_asc_node": 346.1142,
        "meta_arg_of_pericenter": 357.6206,
        "meta_mean_anomaly": 2.4913,
        "meta_ephemeris_type": 0,
        "meta_classification_type": "U",
        "meta_norad_cat_id": 33320,
        "meta_element_set_no": 999,
        "meta_rev_at_epoch": 93247,
        "meta_bstar": 0.00018243951,
        "meta_mean_motion_dot": 1.451e-05,
        "meta_mean_motion_ddot": 0,
        "tle_line1": "1 33320U 08041A   25358.29812646  .00001451  00000+0  18244-3 0  9997",
        "tle_line2": "2 33320  97.6547 346.1142 0019317 357.6206   2.4913 14.83428691932472"
      },
      "geometry": {
        "type": "Point",
        "coordinates": [
          160.7353992932032,
          -37.85401301249592
        ]
      }
    },
    {
      "type": "Feature",
      "properties": {
        "norad_id": 33321,
        "name": "HUANJING 1B (HJ-1B)",
        "group": "dmc",
        "lat": 53.46596714605734,
        "lon": -20.038707307629867,
        "alt_km": 590.0607630618506,
        "timestamp": "2025-12-24T22:42:21.688812+00:00",
        "meta_object_name": "HUANJING 1B (HJ-1B)",
        "meta_object_id": "2008-041B",
        "meta_epoch": "2025-12-24T06:16:09.920352",
        "meta_mean_motion": 14.82850093,
        "meta_eccentricity": 0.00377933,
        "meta_inclination": 97.6403,
        "meta_ra_of_asc_node": 349.7454,
        "meta_arg_of_pericenter": 39.1893,
        "meta_mean_anomaly": 321.2047,
        "meta_ephemeris_type": 0,
        "meta_classification_type": "U",
        "meta_norad_cat_id": 33321,
        "meta_element_set_no": 999,
        "meta_rev_at_epoch": 93248,
        "meta_bstar": 0.00019406429,
        "meta_mean_motion_dot": 1.539e-05,
        "meta_mean_motion_ddot": 0,
        "tle_line1": "1 33321U 08041B   25358.26122593  .00001539  00000+0  19406-3 0  9998",
        "tle_line2": "2 33321  97.6403 349.7454 0037793  39.1893 321.2047 14.82850093932486"
      },
      "geometry": {
        "type": "Point",
        "coordinates": [
          -20.038707307629867,
          53.46596714605734
        ]
      }
    },
    {
      "type": "Feature",
      "properties": {
        "norad_id": 33446,
        "name": "YAOGAN-4",
        "group": "dmc",
        "lat": -39.533127351187616,
        "lon": -64.47648888443565,
        "alt_km": 620.2886580719196,
        "timestamp": "2025-12-24T22:42:21.688824+00:00",
        "meta_object_name": "YAOGAN-4",
        "meta_object_id": "2008-061A",
        "meta_epoch": "2025-12-24T06:41:21.910848",
        "meta_mean_motion": 14.82714813,
        "meta_eccentricity": 0.00129966,
        "meta_inclination": 97.9197,
        "meta_ra_of_asc_node": 288.2655,
        "meta_arg_of_pericenter": 282.4259,
        "meta_mean_anomaly": 77.55,
        "meta_ephemeris_type": 0,
        "meta_classification_type": "U",
        "meta_norad_cat_id": 33446,
        "meta_element_set_no": 999,
        "meta_rev_at_epoch": 91974,
        "meta_bstar": 0.0001734889,
        "meta_mean_motion_dot": 1.348e-05,
        "meta_mean_motion_ddot": 0,
        "tle_line1": "1 33446U 08061A   25358.27872582  .00001348  00000+0  17349-3 0  9991",
        "tle_line2": "2 33446  97.9197 288.2655 0012996 282.4259  77.5500 14.82714813919742"
      },
      "geometry": {
        "type": "Point",
        "coordinates": [
          -64.47648888443565,
          -39.533127351187616
        ]
      }
    },
    {
      "type": "Feature",
      "properties": {
        "norad_id": 35681,
        "name": "DEIMOS-1",
        "group": "dmc",
        "lat": 68.50186347329787,
        "lon": -0.8856401389599219,
        "alt_km": 637.4955262203475,
        "timestamp": "2025-12-24T22:42:21.688835+00:00",
        "meta_object_name": "DEIMOS-1",
        "meta_object_id": "2009-041A",
        "meta_epoch": "2025-12-24T07:33:20.179296",
        "meta_mean_motion": 14.74969193,
        "meta_eccentricity": 0.00025047,
        "meta_inclination": 97.7155,
        "meta_ra_of_asc_node": 158.3796,
        "meta_arg_of_pericenter": 60.8153,
        "meta_mean_anomaly": 299.3307,
        "meta_ephemeris_type": 0,
        "meta_classification_type": "U",
        "meta_norad_cat_id": 35681,
        "meta_element_set_no": 999,
        "meta_rev_at_epoch": 88110,
        "meta_bstar": 0.00010490674,
        "meta_mean_motion_dot": 6.58e-06,
        "meta_mean_motion_ddot": 0,
        "tle_line1": "1 35681U 09041A   25358.31481689  .00000658  00000+0  10491-3 0  9996",
        "tle_line2": "2 35681  97.7155 158.3796 0002504  60.8153 299.3307 14.74969193881106"
      },
      "geometry": {
        "type": "Point",
        "coordinates": [
          -0.8856401389599219,
          68.50186347329787
        ]
      }
    },
    {
      "type": "Feature",
      "properties": {
        "norad_id": 35683,
        "name": "UK-DMC 2",
        "group": "dmc",
        "lat": 24.82512398342625,
        "lon": -42.83256861338122,
        "alt_km": 641.9482626542285,
        "timestamp": "2025-12-24T22:42:21.688859+00:00",
        "meta_object_name": "UK-DMC 2",
        "meta_object_id": "2009-041C",
        "meta_epoch": "2025-12-24T07:21:37.101888",
        "meta_mean_motion": 14.75644939,
        "meta_eccentricity": 0.00015596,
        "meta_inclination": 97.8573,
        "meta_ra_of_asc_node": 132.8835,
        "meta_arg_of_pericenter": 92.6805,
        "meta_mean_anomaly": 267.4583,
        "meta_ephemeris_type": 0,
        "meta_classification_type": "U",
        "meta_norad_cat_id": 35683,
        "meta_element_set_no": 999,
        "meta_rev_at_epoch": 88077,
        "meta_bstar": 0.00013693875,
        "meta_mean_motion_dot": 8.86e-06,
        "meta_mean_motion_ddot": 0,
        "tle_line1": "1 35683U 09041C   25358.30667942  .00000886  00000+0  13694-3 0  9996",
        "tle_line2": "2 35683  97.8573 132.8835 0001559  92.6805 267.4583 14.75644939880773"
      },
      "geometry": {
        "type": "Point",
        "coordinates": [
          -42.83256861338122,
          24.82512398342625
        ]
      }
    },
    {
      "type": "Feature",
      "properties": {
        "norad_id": 40715,
        "name": "DMC3-FM1",
        "group": "dmc",
        "lat": -81.20980303690874,
        "lon": -73.6956960518067,
        "alt_km": 616.6831706132198,
        "timestamp": "2025-12-24T22:42:21.688873+00:00",
        "meta_object_name": "DMC3-FM1",
        "meta_object_id": "2015-032A",
        "meta_epoch": "2025-12-24T06:55:28.567776",
        "meta_mean_motion": 14.85458614,
        "meta_eccentricity": 0.00040419,
        "meta_inclination": 97.6683,
        "meta_ra_of_asc_node": 225.0599,
        "meta_arg_of_pericenter": 273.9267,
        "meta_mean_anomaly": 86.1486,
        "meta_ephemeris_type": 0,
        "meta_classification_type": "U",
        "meta_norad_cat_id": 40715,
        "meta_element_set_no": 999,
        "meta_rev_at_epoch": 56394,
        "meta_bstar": 5.7021766e-05,
        "meta_mean_motion_dot": 4.4e-06,
        "meta_mean_motion_ddot": 0,
        "tle_line1": "1 40715U 15032A   25358.28852509  .00000440  00000+0  57022-4 0  9997",
        "tle_line2": "2 40715  97.6683 225.0599 0004041 273.9267  86.1486 14.85458614563941"
      },
      "geometry": {
        "type": "Point",
        "coordinates": [
          -73.6956960518067,
          -81.20980303690874
        ]
      }
    },
    {
      "type": "Feature",
      "properties": {
        "norad_id": 40716,
        "name": "DMC3-FM2",
        "group": "dmc",
        "lat": 25.542441309276615,
        "lon": 50.839836093210785,
        "alt_km": 613.1958978691137,
        "timestamp": "2025-12-24T22:42:21.688884+00:00",
        "meta_object_name": "DMC3-FM2",
        "meta_object_id": "2015-032B",
        "meta_epoch": "2025-12-24T05:50:51.086112",
        "meta_mean_motion": 14.85459118,
        "meta_eccentricity": 0.00046834,
        "meta_inclination": 97.6739,
        "meta_ra_of_asc_node": 226.4684,
        "meta_arg_of_pericenter": 280.378,
        "meta_mean_anomaly": 79.6907,
        "meta_ephemeris_type": 0,
        "meta_classification_type": "U",
        "meta_norad_cat_id": 40716,
        "meta_element_set_no": 999,
        "meta_rev_at_epoch": 56393,
        "meta_bstar": 6.8573428e-05,
        "meta_mean_motion_dot": 5.4e-06,
        "meta_mean_motion_ddot": 0,
        "tle_line1": "1 40716U 15032B   25358.24364683  .00000540  00000+0  68573-4 0  9999",
        "tle_line2": "2 40716  97.6739 226.4684 0004683 280.3780  79.6907 14.85459118563932"
      },
      "geometry": {
        "type": "Point",
        "coordinates": [
          50.839836093210785,
          25.542441309276615
        ]
      }
    },
    {
      "type": "Feature",
      "properties": {
        "norad_id": 40717,
        "name": "DMC3-FM3",
        "group": "dmc",
        "lat": 37.565293233808106,
        "lon": -137.16996105201568,
        "alt_km": 610.8545270224104,
        "timestamp": "2025-12-24T22:42:21.688895+00:00",
        "meta_object_name": "DMC3-FM3",
        "meta_object_id": "2015-032C",
        "meta_epoch": "2025-12-24T06:22:08.192640",
        "meta_mean_motion": 14.85445838,
        "meta_eccentricity": 0.00039711,
        "meta_inclination": 97.6793,
        "meta_ra_of_asc_node": 228.1303,
        "meta_arg_of_pericenter": 280.7987,
        "meta_mean_anomaly": 79.2781,
        "meta_ephemeris_type": 0,
        "meta_classification_type": "U",
        "meta_norad_cat_id": 40717,
        "meta_element_set_no": 999,
        "meta_rev_at_epoch": 56394,
        "meta_bstar": 0.00011096377,
        "meta_mean_motion_dot": 9.05e-06,
        "meta_mean_motion_ddot": 0,
        "tle_line1": "1 40717U 15032C   25358.26537260  .00000905  00000+0  11096-3 0  9997",
        "tle_line2": "2 40717  97.6793 228.1303 0003971 280.7987  79.2781 14.85445838563943"
      },
      "geometry": {
        "type": "Point",
        "coordinates": [
          -137.16996105201568,
          37.565293233808106
        ]
      }
    }
  ]
}